{
  "type": "FeatureCollection",
  "features": [
    {
      "type": "Feature",
      "properties": {
        "norad_id": 29922,
        "name": "FENGYUN 1C DEB",
        "group": "fengyun-1c-debris",
        "lat": -80.13200657494406,
        "lon": 101.48400387715712,
        "alt_km": 941.9126137308003,
        "timestamp": "2025-12-02T07:10:09.387707+00:00",
        "meta_object_name": "FENGYUN 1C DEB",
        "meta_object_id": "1999-025HU",
        "meta_epoch": "2025-12-01T16:07:38.022240",
        "meta_mean_motion": 13.98570951,
        "meta_eccentricity": 0.009395,
        "meta_inclination": 99.1371,
        "meta_ra_of_asc_node": 33.1629,
        "meta_arg_of_pericenter": 37.5381,
        "meta_mean_anomaly": 323.2293,
        "meta_ephemeris_type": 0,
        "meta_classification_type": "U",
        "meta_norad_cat_id": 29922,
        "meta_element_set_no": 999,
        "meta_rev_at_epoch": 96286,
        "meta_bstar": 0.00034516,
        "meta_mean_motion_dot": 4.7e-06,
        "meta_mean_motion_ddot": 0,
        "tle_line1": "1 29922U 99025HU  25335.67196785  .00000470  00000+0  34516-3 0  9998",
        "tle_line2": "2 29922  99.1371  33.1629 0093950  37.5381 323.2293 13.98570951962866"
      },
      "geometry": {
        "type": "Point",
        "coordinates": [
          101.48400387715712,
          -80.13200657494406
        ]
      }
    },
    {
      "type": "Feature",
      "properties": {
        "norad_id": 29923,
        "name": "FENGYUN 1C DEB",
        "group": "fengyun-1c-debris",
        "lat": -78.28798655219049,
        "lon": 117.35483043979623,
        "alt_km": 847.8654214900052,
        "timestamp": "2025-12-02T07:10:09.387717+00:00",
        "meta_object_name": "FENGYUN 1C DEB",
        "meta_object_id": "1999-025HV",
        "meta_epoch": "2025-12-01T11:58:34.367232",
        "meta_mean_motion": 14.13861228,
        "meta_eccentricity": 0.00171594,
        "meta_inclination": 98.6887,
        "meta_ra_of_asc_node": 344.1073,
        "meta_arg_of_pericenter": 201.3317,
        "meta_mean_anomaly": 312.4282,
        "meta_ephemeris_type": 0,
        "meta_classification_type": "U",
        "meta_norad_cat_id": 29923,
        "meta_element_set_no": 999,
        "meta_rev_at_epoch": 97116,
        "meta_bstar": 0.00053029668,
        "meta_mean_motion_dot": 9.63e-06,
        "meta_mean_motion_ddot": 0,
        "tle_line1": "1 29923U 99025HV  25335.49900888  .00000963  00000+0  53030-3 0  9995",
        "tle_line2": "2 29923  98.6887 344.1073 0017159 201.3317 312.4282 14.13861228971167"
      },
      "geometry": {
        "type": "Point",
        "coordinates": [
          117.35483043979623,
          -78.28798655219049
        ]
      }
    },
    {
      "type": "Feature",
      "properties": {
        "norad_id": 29924,
        "name": "FENGYUN 1C DEB",
        "group": "fengyun-1c-debris",
        "lat": 62.30232519456756,
        "lon": -27.44940493975878,
        "alt_km": 870.3996699517529,
        "timestamp": "2025-12-02T07:10:09.387728+00:00",
        "meta_object_name": "FENGYUN 1C DEB",
        "meta_object_id": "1999-025HW",
        "meta_epoch": "2025-12-01T19:47:00.174048",
        "meta_mean_motion": 14.0888487,
        "meta_eccentricity": 0.0025919,
        "meta_inclination": 98.7348,
        "meta_ra_of_asc_node": 349.1202,
        "meta_arg_of_pericenter": 289.7176,
        "meta_mean_anomaly": 248.8626,
        "meta_ephemeris_type": 0,
        "meta_classification_type": "U",
        "meta_norad_cat_id": 29924,
        "meta_element_set_no": 999,
        "meta_rev_at_epoch": 97054,
        "meta_bstar": 3.3623e-05,
        "meta_mean_motion_dot": 1.5e-07,
        "meta_mean_motion_ddot": 0,
        "tle_line1": "1 29924U 99025HW  25335.82430757  .00000015  00000+0  33623-4 0  9991",
        "tle_line2": "2 29924  98.7348 349.1202 0025919 289.7176 248.8626 14.08884870970543"
      },
      "geometry": {
        "type": "Point",
        "coordinates": [
          -27.44940493975878,
          62.30232519456756
        ]
      }
    },
    {
      "type": "Feature",
      "properties": {
        "norad_id": 29926,
        "name": "FENGYUN 1C DEB",
        "group": "fengyun-1c-debris",
        "lat": 80.13281023684772,
        "lon": -157.4912329903813,
        "alt_km": 869.3699947228606,
        "timestamp": "2025-12-02T07:10:09.387738+00:00",
        "meta_object_name": "FENGYUN 1C DEB",
        "meta_object_id": "1999-025HY",
        "meta_epoch": "2025-12-01T11:20:17.282400",
        "meta_mean_motion": 14.3333252,
        "meta_eccentricity": 0.02489389,
        "meta_inclination": 98.2824,
        "meta_ra_of_asc_node": 324.8453,
        "meta_arg_of_pericenter": 333.9797,
        "meta_mean_anomaly": 177.7583,
        "meta_ephemeris_type": 0,
        "meta_classification_type": "U",
        "meta_norad_cat_id": 29926,
        "meta_element_set_no": 999,
        "meta_rev_at_epoch": 98419,
        "meta_bstar": 0.00053107126,
        "meta_mean_motion_dot": 2.017e-05,
        "meta_mean_motion_ddot": 0,
        "tle_line1": "1 29926U 99025HY  25335.47242225  .00002017  00000+0  53107-3 0  9997",
        "tle_line2": "2 29926  98.2824 324.8453 0248938 333.9797 177.7583 14.33332520984192"
      },
      "geometry": {
        "type": "Point",
        "coordinates": [
          -157.4912329903813,
          80.13281023684772
        ]
      }
    },
    {
      "type": "Feature",
      "properties": {
        "norad_id": 29927,
        "name": "FENGYUN 1C DEB",
        "group": "fengyun-1c-debris",
        "lat": 52.99888511175252,
        "lon": -168.7418691801006,
        "alt_km": 649.2913415447438,
        "timestamp": "2025-12-02T07:10:09.387748+00:00",
        "meta_object_name": "FENGYUN 1C DEB",
        "meta_object_id": "1999-025HZ",
        "meta_epoch": "2025-12-01T14:50:47.797728",
        "meta_mean_motion": 14.73876131,
        "meta_eccentricity": 0.00174825,
        "meta_inclination": 99.0863,
        "meta_ra_of_asc_node": 358.2358,
        "meta_arg_of_pericenter": 245.4874,
        "meta_mean_anomaly": 234.0938,
        "meta_ephemeris_type": 0,
        "meta_classification_type": "U",
        "meta_norad_cat_id": 29927,
        "meta_element_set_no": 999,
        "meta_rev_at_epoch": 98483,
        "meta_bstar": 0.0026813137,
        "meta_mean_motion_dot": 0.00017596,
        "meta_mean_motion_ddot": 0,
        "tle_line1": "1 29927U 99025HZ  25335.61860877  .00017596  00000+0  26813-2 0  9994",
        "tle_line2": "2 29927  99.0863 358.2358 0017482 245.4874 234.0938 14.73876131984838"
      },
      "geometry": {
        "type": "Point",
        "coordinates": [
          -168.7418691801006,
          52.99888511175252
        ]
      }
    },
    {
      "type": "Feature",
      "properties": {
        "norad_id": 29928,
        "name": "FENGYUN 1C DEB",
        "group": "fengyun-1c-debris",
        "lat": -52.047991236841135,
        "lon": 167.77331253548078,
        "alt_km": 963.2309848457235,
        "timestamp": "2025-12-02T07:10:09.387758+00:00",
        "meta_object_name": "FENGYUN 1C DEB",
        "meta_object_id": "1999-025JA",
        "meta_epoch": "2025-12-01T15:04:33.040416",
        "meta_mean_motion": 13.88056926,
        "meta_eccentricity": 0.0143624,
        "meta_inclination": 99.5861,
        "meta_ra_of_asc_node": 359.5986,
        "meta_arg_of_pericenter": 132.5222,
        "meta_mean_anomaly": 349.8851,
        "meta_ephemeris_type": 0,
        "meta_classification_type": "U",
        "meta_norad_cat_id": 29928,
        "meta_element_set_no": 999,
        "meta_rev_at_epoch": 95337,
        "meta_bstar": 0.0006703531,
        "meta_mean_motion_dot": 8.21e-06,
        "meta_mean_motion_ddot": 0,
        "tle_line1": "1 29928U 99025JA  25335.62816019  .00000821  00000+0  67035-3 0  9990",
        "tle_line2": "2 29928  99.5861 359.5986 0143624 132.5222 349.8851 13.88056926953375"
      },
      "geometry": {
        "type": "Point",
        "coordinates": [
          167.77331253548078,
          -52.047991236841135
        ]
      }
    },
    {
      "type": "Feature",
      "properties": {
        "norad_id": 29929,
        "name": "FENGYUN 1C DEB",
        "group": "fengyun-1c-debris",
        "lat": -40.501411806949555,
        "lon": -96.4405099306141,
        "alt_km": 932.2433687494149,
        "timestamp": "2025-12-02T07:10:09.387768+00:00",
        "meta_object_name": "FENGYUN 1C DEB",
        "meta_object_id": "1999-025JB",
        "meta_epoch": "2025-12-01T13:22:42.968928",
        "meta_mean_motion": 14.01305737,
        "meta_eccentricity": 0.01307419,
        "meta_inclination": 98.6237,
        "meta_ra_of_asc_node": 255.4115,
        "meta_arg_of_pericenter": 207.8285,
        "meta_mean_anomaly": 332.3666,
        "meta_ephemeris_type": 0,
        "meta_classification_type": "U",
        "meta_norad_cat_id": 29929,
        "meta_element_set_no": 999,
        "meta_rev_at_epoch": 95799,
        "meta_bstar": 0.0010228273,
        "meta_mean_motion_dot": 1.618e-05,
        "meta_mean_motion_ddot": 0,
        "tle_line1": "1 29929U 99025JB  25335.55744177  .00001618  00000+0  10228-2 0  9994",
        "tle_line2": "2 29929  98.6237 255.4115 0130741 207.8285 332.3666 14.01305737957998"
      },
      "geometry": {
        "type": "Point",
        "coordinates": [
          -96.4405099306141,
          -40.501411806949555
        ]
      }
    }
  ]
}